[{
    "OBJECT_NAME": "FENGYUN 1C DEB",
    "OBJECT_ID": "1999-025EYY",
    "EPOCH": "2023-10-30T02:13:48.408096",
    "MEAN_MOTION": 14.03092694,
    "ECCENTRICITY": 0.0106825,
    "INCLINATION": 99.2594,
    "RA_OF_ASC_NODE": 342.3121,
    "ARG_OF_PERICENTER": 346.2738,
    "MEAN_ANOMALY": 42.3671,
    "EPHEMERIS_TYPE": 0,
    "CLASSIFICATION_TYPE": "U",
    "NORAD_CAT_ID": 46443,
    "ELEMENT_SET_NO": 999,
    "REV_AT_EPOCH": 48702,
    "BSTAR": 0.0024128,
    "MEAN_MOTION_DOT": 3.901e-5,
    "MEAN_MOTION_DDOT": 0
},{
    "OBJECT_NAME": "FENGYUN 1C DEB",
    "OBJECT_ID": "1999-025EYZ",
    "EPOCH": "2023-10-31T06:55:27.357312",
    "MEAN_MOTION": 14.23354468,
    "ECCENTRICITY": 0.0087623,
    "INCLINATION": 98.5257,
    "RA_OF_ASC_NODE": 317.6713,
    "ARG_OF_PERICENTER": 251.9195,
    "MEAN_ANOMALY": 120.966,
    "EPHEMERIS_TYPE": 0,
    "CLASSIFICATION_TYPE": "U",
    "NORAD_CAT_ID": 46444,
    "ELEMENT_SET_NO": 999,
    "REV_AT_EPOCH": 51564,
    "BSTAR": 0.00076905,
    "MEAN_MOTION_DOT": 1.771e-5,
    "MEAN_MOTION_DDOT": 0
},{
    "OBJECT_NAME": "FENGYUN 1C DEB",
    "OBJECT_ID": "1999-025EZB",
    "EPOCH": "2023-11-01T16:50:42.937440",
    "MEAN_MOTION": 14.20848559,
    "ECCENTRICITY": 0.0069584,
    "INCLINATION": 98.882,
    "RA_OF_ASC_NODE": 32.414,
    "ARG_OF_PERICENTER": 120.7471,
    "MEAN_ANOMALY": 240.0583,
    "EPHEMERIS_TYPE": 0,
    "CLASSIFICATION_TYPE": "U",
    "NORAD_CAT_ID": 46446,
    "ELEMENT_SET_NO": 999,
    "REV_AT_EPOCH": 76073,
    "BSTAR": 0.0026597,
    "MEAN_MOTION_DOT": 5.851e-5,
    "MEAN_MOTION_DDOT": 0
},{
    "OBJECT_NAME": "FENGYUN 1C DEB",
    "OBJECT_ID": "1999-025EZC",
    "EPOCH": "2023-10-24T18:21:54.545760",
    "MEAN_MOTION": 14.28150445,
    "ECCENTRICITY": 0.0172464,
    "INCLINATION": 98.4378,
    "RA_OF_ASC_NODE": 304.0064,
    "ARG_OF_PERICENTER": 207.0771,
    "MEAN_ANOMALY": 152.1336,
    "EPHEMERIS_TYPE": 0,
    "CLASSIFICATION_TYPE": "U",
    "NORAD_CAT_ID": 46447,
    "ELEMENT_SET_NO": 999,
    "REV_AT_EPOCH": 68074,
    "BSTAR": 0.00035745,
    "MEAN_MOTION_DOT": 9.97e-6,
    "MEAN_MOTION_DDOT": 0
},{
    "OBJECT_NAME": "FENGYUN 1C DEB",
    "OBJECT_ID": "1999-025EZD",
    "EPOCH": "2023-10-30T20:53:23.933760",
    "MEAN_MOTION": 14.11856941,
    "ECCENTRICITY": 0.0078749,
    "INCLINATION": 99.1269,
    "RA_OF_ASC_NODE": 334.996,
    "ARG_OF_PERICENTER": 134.5414,
    "MEAN_ANOMALY": 226.2224,
    "EPHEMERIS_TYPE": 0,
    "CLASSIFICATION_TYPE": "U",
    "NORAD_CAT_ID": 46448,
    "ELEMENT_SET_NO": 999,
    "REV_AT_EPOCH": 51007,
    "BSTAR": 0.0028507,
    "MEAN_MOTION_DOT": 5.316e-5,
    "MEAN_MOTION_DDOT": 0
},{
    "OBJECT_NAME": "FENGYUN 1C DEB",
    "OBJECT_ID": "1999-025EZE",
    "EPOCH": "2023-11-01T01:36:03.508128",
    "MEAN_MOTION": 14.1573404,
    "ECCENTRICITY": 0.021148,
    "INCLINATION": 98.7365,
    "RA_OF_ASC_NODE": 344.9185,
    "ARG_OF_PERICENTER": 330.9977,
    "MEAN_ANOMALY": 27.9578,
    "EPHEMERIS_TYPE": 0,
    "CLASSIFICATION_TYPE": "U",
    "NORAD_CAT_ID": 46449,
    "ELEMENT_SET_NO": 999,
    "REV_AT_EPOCH": 46691,
    "BSTAR": 0.00067888,
    "MEAN_MOTION_DOT": 1.609e-5,
    "MEAN_MOTION_DDOT": 0
},{
    "OBJECT_NAME": "FENGYUN 1C DEB",
    "OBJECT_ID": "1999-025EZF",
    "EPOCH": "2023-10-25T02:19:59.218752",
    "MEAN_MOTION": 13.92777033,
    "ECCENTRICITY": 0.0210867,
    "INCLINATION": 98.0883,
    "RA_OF_ASC_NODE": 234.5767,
    "ARG_OF_PERICENTER": 107.5109,
    "MEAN_ANOMALY": 254.9217,
    "EPHEMERIS_TYPE": 0,
    "CLASSIFICATION_TYPE": "U",
    "NORAD_CAT_ID": 46450,
    "ELEMENT_SET_NO": 999,
    "REV_AT_EPOCH": 50221,
    "BSTAR": 0.0024803,
    "MEAN_MOTION_DOT": 3.82e-5,
    "MEAN_MOTION_DDOT": 0
},{
    "OBJECT_NAME": "FENGYUN 1C DEB",
    "OBJECT_ID": "1999-025EZL",
    "EPOCH": "2023-11-01T08:22:21.844416",
    "MEAN_MOTION": 14.42481341,
    "ECCENTRICITY": 0.0113468,
    "INCLINATION": 98.3175,
    "RA_OF_ASC_NODE": 337.77,
    "ARG_OF_PERICENTER": 39.6436,
    "MEAN_ANOMALY": 321.2981,
    "EPHEMERIS_TYPE": 0,
    "CLASSIFICATION_TYPE": "U",
    "NORAD_CAT_ID": 46986,
    "ELEMENT_SET_NO": 999,
    "REV_AT_EPOCH": 52246,
    "BSTAR": 0.00060883,
    "MEAN_MOTION_DOT": 2.134e-5,
    "MEAN_MOTION_DDOT": 0
},{
    "OBJECT_NAME": "FENGYUN 1C DEB",
    "OBJECT_ID": "1999-025EZQ",
    "EPOCH": "2023-10-30T11:43:30.343296",
    "MEAN_MOTION": 13.87182493,
    "ECCENTRICITY": 0.0490846,
    "INCLINATION": 98.2893,
    "RA_OF_ASC_NODE": 201.7399,
    "ARG_OF_PERICENTER": 114.165,
    "MEAN_ANOMALY": 56.2709,
    "EPHEMERIS_TYPE": 0,
    "CLASSIFICATION_TYPE": "U",
    "NORAD_CAT_ID": 46990,
    "ELEMENT_SET_NO": 999,
    "REV_AT_EPOCH": 15003,
    "BSTAR": 0.0031557,
    "MEAN_MOTION_DOT": 9.698e-5,
    "MEAN_MOTION_DDOT": 0
}]