1 46443U 99025EYY 23303.09292139  .00003901  00000-0  24128-2 0  9994
2 46443  99.2594 342.3121 0106825 346.2738  42.3671 14.03092694487024
1 46444U 99025EYZ 23304.28851108  .00001771  00000-0  76905-3 0  9998
2 46444  98.5257 317.6713 0087623 251.9195 120.9660 14.23354468515641
1 46446U 99025EZB 23305.70188585  .00005851  00000-0  26597-2 0  9994
2 46446  98.8820  32.4140 0069584 120.7471 240.0583 14.20848559760730
1 46447U 99025EZC 23297.76521465  .00000997  00000-0  35745-3 0  9991
2 46447  98.4378 304.0064 0172464 207.0771 152.1336 14.28150445680741
1 46448U 99025EZD 23303.87041590  .00005316  00000-0  28507-2 0  9995
2 46448  99.1269 334.9960 0078749 134.5414 226.2224 14.11856941510078
1 46449U 99025EZE 23305.06670727  .00001609  00000-0  67888-3 0  9996
2 46449  98.7365 344.9185 0211480 330.9977  27.9578 14.15734040466918
1 46450U 99025EZF 23298.09721318  .00003820  00000-0  24803-2 0  9991
2 46450  98.0883 234.5767 0210867 107.5109 254.9217 13.92777033502210
1 46986U 99025EZL 23305.34886394  .00002134  00000-0  60883-3 0  9994
2 46986  98.3175 337.7700 0113468  39.6436 321.2981 14.42481341522466
1 46990U 99025EZQ 23303.48854564  .00009698  00000-0  31557-2 0  9993
2 46990  98.2893 201.7399 0490846 114.1650  56.2709 13.87182493150033
